{
  "type": "FeatureCollection",
  "features": [
    {
      "type": "Feature",
      "properties": {
        "norad_id": 63772,
        "name": "BIOMASS",
        "group": "resource",
        "lat": -78.75012075444752,
        "lon": -150.14060161724396,
        "alt_km": 677.0665620358232,
        "timestamp": "2025-12-05T05:43:14.772391+00:00",
        "meta_object_name": "BIOMASS",
        "meta_object_id": "2025-090A",
        "meta_epoch": "2025-12-04T12:05:40.661376",
        "meta_mean_motion": 14.67542436,
        "meta_eccentricity": 0.0001223,
        "meta_inclination": 98.0699,
        "meta_ra_of_asc_node": 163.6332,
        "meta_arg_of_pericenter": 81.7537,
        "meta_mean_anomaly": 278.3806,
        "meta_ephemeris_type": 0,
        "meta_classification_type": "U",
        "meta_norad_cat_id": 63772,
        "meta_element_set_no": 999,
        "meta_rev_at_epoch": 3213,
        "meta_bstar": 0.00057194,
        "meta_mean_motion_dot": 3.197e-05,
        "meta_mean_motion_ddot": 0,
        "tle_line1": "1 63772U 25090A   25338.50394284  .00003197  00000+0  57194-3 0  9995",
        "tle_line2": "2 63772  98.0699 163.6332 0001223  81.7537 278.3806 14.67542436 32136"
      },
      "geometry": {
        "type": "Point",
        "coordinates": [
          -150.14060161724396,
          -78.75012075444752
        ]
      }
    },
    {
      "type": "Feature",
      "properties": {
        "norad_id": 64694,
        "name": "GOSAT-GW (IBUKI GW)",
        "group": "resource",
        "lat": 52.30807196123827,
        "lon": 105.42683438053596,
        "alt_km": 663.4259580351736,
        "timestamp": "2025-12-05T05:43:14.772401+00:00",
        "meta_object_name": "GOSAT-GW (IBUKI GW)",
        "meta_object_id": "2025-141A",
        "meta_epoch": "2025-11-30T05:41:32.267328",
        "meta_mean_motion": 14.67567435,
        "meta_eccentricity": 0.00014369,
        "meta_inclination": 98.0401,
        "meta_ra_of_asc_node": 269.9775,
        "meta_arg_of_pericenter": 82.921,
        "meta_mean_anomaly": 277.2158,
        "meta_ephemeris_type": 0,
        "meta_classification_type": "U",
        "meta_norad_cat_id": 64694,
        "meta_element_set_no": 999,
        "meta_rev_at_epoch": 2266,
        "meta_bstar": 0.00019762357,
        "meta_mean_motion_dot": 1.074e-05,
        "meta_mean_motion_ddot": 0,
        "tle_line1": "1 64694U 25141A   25334.23717902  .00001074  00000+0  19762-3 0  9999",
        "tle_line2": "2 64694  98.0401 269.9775 0001436  82.9210 277.2158 14.67567435 22660"
      },
      "geometry": {
        "type": "Point",
        "coordinates": [
          105.42683438053596,
          52.30807196123827
        ]
      }
    },
    {
      "type": "Feature",
      "properties": {
        "norad_id": 64876,
        "name": "IONOSFERA-M 3",
        "group": "resource",
        "lat": -65.90193575153886,
        "lon": -38.96286117076397,
        "alt_km": 828.9813509621445,
        "timestamp": "2025-12-05T05:43:14.772411+00:00",
        "meta_object_name": "IONOSFERA-M 3",
        "meta_object_id": "2025-155A",
        "meta_epoch": "2025-12-04T18:12:42.073056",
        "meta_mean_motion": 14.21438021,
        "meta_eccentricity": 0.0002375,
        "meta_inclination": 98.5771,
        "meta_ra_of_asc_node": 300.8513,
        "meta_arg_of_pericenter": 72.5422,
        "meta_mean_anomaly": 287.6015,
        "meta_ephemeris_type": 0,
        "meta_classification_type": "U",
        "meta_norad_cat_id": 64876,
        "meta_element_set_no": 999,
        "meta_rev_at_epoch": 1878,
        "meta_bstar": 9.9783e-05,
        "meta_mean_motion_dot": 1.75e-06,
        "meta_mean_motion_ddot": 0,
        "tle_line1": "1 64876U 25155A   25338.75882029  .00000175  00000+0  99783-4 0  9993",
        "tle_line2": "2 64876  98.5771 300.8513 0002375  72.5422 287.6015 14.21438021 18788"
      },
      "geometry": {
        "type": "Point",
        "coordinates": [
          -38.96286117076397,
          -65.90193575153886
        ]
      }
    },
    {
      "type": "Feature",
      "properties": {
        "norad_id": 64877,
        "name": "IONOSFERA-M 4",
        "group": "resource",
        "lat": 65.20227465964271,
        "lon": 140.30282909956424,
        "alt_km": 813.1907911193703,
        "timestamp": "2025-12-05T05:43:14.772421+00:00",
        "meta_object_name": "IONOSFERA-M 4",
        "meta_object_id": "2025-155B",
        "meta_epoch": "2025-12-04T19:03:12.291264",
        "meta_mean_motion": 14.2143908,
        "meta_eccentricity": 0.0001731,
        "meta_inclination": 98.577,
        "meta_ra_of_asc_node": 300.805,
        "meta_arg_of_pericenter": 71.5515,
        "meta_mean_anomaly": 288.5851,
        "meta_ephemeris_type": 0,
        "meta_classification_type": "U",
        "meta_norad_cat_id": 64877,
        "meta_element_set_no": 999,
        "meta_rev_at_epoch": 1878,
        "meta_bstar": 0.00010095,
        "meta_mean_motion_dot": 1.78e-06,
        "meta_mean_motion_ddot": 0,
        "tle_line1": "1 64877U 25155B   25338.79389226  .00000178  00000+0  10095-3 0  9990",
        "tle_line2": "2 64877  98.5770 300.8050 0001731  71.5515 288.5851 14.21439080 18785"
      },
      "geometry": {
        "type": "Point",
        "coordinates": [
          140.30282909956424,
          65.20227465964271
        ]
      }
    },
    {
      "type": "Feature",
      "properties": {
        "norad_id": 64899,
        "name": "MICROCARB",
        "group": "resource",
        "lat": -16.479234823053403,
        "lon": 57.089326373120706,
        "alt_km": 671.0816819306783,
        "timestamp": "2025-12-05T05:43:14.772431+00:00",
        "meta_object_name": "MICROCARB",
        "meta_object_id": "2025-156A",
        "meta_epoch": "2025-12-04T16:44:43.522944",
        "meta_mean_motion": 14.72037023,
        "meta_eccentricity": 0.0016594,
        "meta_inclination": 98.0034,
        "meta_ra_of_asc_node": 54.172,
        "meta_arg_of_pericenter": 169.7341,
        "meta_mean_anomaly": 190.4208,
        "meta_ephemeris_type": 0,
        "meta_classification_type": "U",
        "meta_norad_cat_id": 64899,
        "meta_element_set_no": 999,
        "meta_rev_at_epoch": 1935,
        "meta_bstar": 0.00024502,
        "meta_mean_motion_dot": 1.492e-05,
        "meta_mean_motion_ddot": 0,
        "tle_line1": "1 64899U 25156A   25338.69772596  .00001492  00000+0  24502-3 0  9998",
        "tle_line2": "2 64899  98.0034  54.1720 0016594 169.7341 190.4208 14.72037023 19358"
      },
      "geometry": {
        "type": "Point",
        "coordinates": [
          57.089326373120706,
          -16.479234823053403
        ]
      }
    },
    {
      "type": "Feature",
      "properties": {
        "norad_id": 64900,
        "name": "CO3D 3",
        "group": "resource",
        "lat": 12.658981653399755,
        "lon": -122.60577674975505,
        "alt_km": 505.66333666454375,
        "timestamp": "2025-12-05T05:43:14.772441+00:00",
        "meta_object_name": "CO3D 3",
        "meta_object_id": "2025-156B",
        "meta_epoch": "2025-12-02T23:16:40.108224",
        "meta_mean_motion": 15.2021179,
        "meta_eccentricity": 0.00013753,
        "meta_inclination": 97.4352,
        "meta_ra_of_asc_node": 53.4771,
        "meta_arg_of_pericenter": 132.9697,
        "meta_mean_anomaly": 227.1654,
        "meta_ephemeris_type": 0,
        "meta_classification_type": "U",
        "meta_norad_cat_id": 64900,
        "meta_element_set_no": 999,
        "meta_rev_at_epoch": 1972,
        "meta_bstar": 0.00042667501,
        "meta_mean_motion_dot": 9.183e-05,
        "meta_mean_motion_ddot": 0,
        "tle_line1": "1 64900U 25156B   25336.96990866  .00009183  00000+0  42668-3 0  9999",
        "tle_line2": "2 64900  97.4352  53.4771 0001375 132.9697 227.1654 15.20211790 19725"
      },
      "geometry": {
        "type": "Point",
        "coordinates": [
          -122.60577674975505,
          12.658981653399755
        ]
      }
    },
    {
      "type": "Feature",
      "properties": {
        "norad_id": 64901,
        "name": "CO3D 4",
        "group": "resource",
        "lat": 13.751436121169954,
        "lon": -122.45464144609834,
        "alt_km": 505.94790034228663,
        "timestamp": "2025-12-05T05:43:14.772451+00:00",
        "meta_object_name": "CO3D 4",
        "meta_object_id": "2025-156C",
        "meta_epoch": "2025-12-01T18:50:45.474720",
        "meta_mean_motion": 15.20204195,
        "meta_eccentricity": 0.00012108,
        "meta_inclination": 97.4354,
        "meta_ra_of_asc_node": 52.3098,
        "meta_arg_of_pericenter": 238.3057,
        "meta_mean_anomaly": 121.806,
        "meta_ephemeris_type": 0,
        "meta_classification_type": "U",
        "meta_norad_cat_id": 64901,
        "meta_element_set_no": 999,
        "meta_rev_at_epoch": 1954,
        "meta_bstar": -1.4420799e-05,
        "meta_mean_motion_dot": -3.8e-06,
        "meta_mean_motion_ddot": 0,
        "tle_line1": "1 64901U 25156C   25335.78524855 -.00000380  00000+0 -14421-4 0  9999",
        "tle_line2": "2 64901  97.4354  52.3098 0001210 238.3057 121.8060 15.20204195 19549"
      },
      "geometry": {
        "type": "Point",
        "coordinates": [
          -122.45464144609834,
          13.751436121169954
        ]
      }
    }
  ]
}